SL-14 R/B               
1 16496U 86006B   26064.28051960  .00000838  00000+0  86686-4 0  9991
2 16496  82.5234 263.8882 0075141 287.7293  71.5732 14.86808181148558
COSMOS 1743             
1 16719U 86034A   26064.01877000  .00037801  00000+0  49979-3 0  9995
2 16719  82.5292  78.7321 0002083 326.7160  33.3964 15.58162664179526
SL-14 R/B               
1 16792U 86046B   26064.15982156  .00000584  00000+0  64489-4 0  9995
2 16792  82.4782  84.4633 0021720 241.1737 118.7298 14.85585122125738
SL-14 R/B               
1 16882U 86055B   26064.22157949  .00000634  00000+0  70245-4 0  9990
2 16882  82.5210 130.8738 0018571 351.7184  62.4622 14.85638175118703
AJISAI (EGS)            
1 16908U 86061A   26064.30181329 -.00000074  00000+0  16763-3 0  9997
2 16908  50.0080 106.8410 0011254 275.6992 167.9845 12.44515601467457
COSMOS 1812             
1 17295U 87003A   26064.27669567  .04336969 -12478-5  60814-3 0  9998
2 17295  82.4662 200.6099 0009454 280.2072  79.8157 16.34939650143778
SL-14 R/B               
1 17567U 87024B   26064.32953797  .00000612  00000+0  66924-4 0  9999
2 17567  82.5251  96.8630 0016670 275.7137  84.2178 14.86127386 87488
COSMOS 1833             
1 17589U 87027A   26064.18816242 -.00000132  00000+0 -44565-4 0  9999
2 17589  70.9232 335.4791 0024478 220.7927 139.1363 14.13055825  9684
SL-16 R/B               
1 17590U 87027B   26064.03370830 -.00000168  00000+0 -59456-4 0  9997
2 17590  71.0015 286.3071 0003628 152.8419 207.2895 14.17165983 14681
SL-14 R/B               
1 17912U 87038B   26064.25490266  .00000602  00000+0  66948-4 0  9992
2 17912  82.5009 300.9857 0019301 174.8609 185.2809 14.85364844 78574
COSMOS 1844             
1 17973U 87041A   26064.22811325 -.00000093  00000+0 -23204-4 0  9997
2 17973  70.8996  43.5855 0029753  24.5193 335.7336 14.14553139  2950
SL-14 R/B               
1 18153U 87055B   26064.23262304  .00000823  00000+0  91928-4 0  9998
2 18153  82.5029 353.2306 0021528  32.1148 328.1375 14.85623384 69272
COSMOS 1867             
1 18187U 87060A   26064.10985379  .00000010  00000+0  41241-4 0  9992
2 18187  65.0117 319.5309 0014418 278.3689  81.5761 14.31502252 19281
SL-14 R/B               
1 18749U 88001B   26064.09289198  .00000760  00000+0  85142-4 0  9996
2 18749  82.5145 199.6826 0016648 252.1539 107.7861 14.85520904 41349
COSMOS 1933             
1 18958U 88020A   26063.97795687  .00004943  00000+0  24217-3 0  9992
2 18958  82.5094 255.5752 0003443 200.6253 159.4842 15.17932153 49513
SL-3 R/B                
1 19046U 88032B   26064.25565541  .00006775  00000+0  31678-3 0  9994
2 19046  97.5186  47.5222 0024166 248.0696 111.7970 15.19845852 51431
SL-16 R/B               
1 19120U 88039B   26064.32977007 -.00000062  00000+0 -65206-5 0  9997
2 19120  71.0130  77.7674 0022495 340.7411  19.2861 14.19615731957766
