[{"OBJECT_NAME":"SL-14 R/B","OBJECT_ID":"1986-006B","EPOCH":"2026-03-05T06:43:56.893440","MEAN_MOTION":14.86808181,"ECCENTRICITY":0.00751414,"INCLINATION":82.5234,"RA_OF_ASC_NODE":263.8882,"ARG_OF_PERICENTER":287.7293,"MEAN_ANOMALY":71.5732,"EPHEMERIS_TYPE":0,"CLASSIFICATION_TYPE":"U","NORAD_CAT_ID":16496,"ELEMENT_SET_NO":999,"REV_AT_EPOCH":14855,"BSTAR":8.6685682e-5,"MEAN_MOTION_DOT":8.38e-6,"MEAN_MOTION_DDOT":0},{"OBJECT_NAME":"COSMOS 1743","OBJECT_ID":"1986-034A","EPOCH":"2026-03-05T00:27:01.728000","MEAN_MOTION":15.58162664,"ECCENTRICITY":0.00020834,"INCLINATION":82.5292,"RA_OF_ASC_NODE":78.7321,"ARG_OF_PERICENTER":326.716,"MEAN_ANOMALY":33.3964,"EPHEMERIS_TYPE":0,"CLASSIFICATION_TYPE":"U","NORAD_CAT_ID":16719,"ELEMENT_SET_NO":999,"REV_AT_EPOCH":17952,"BSTAR":0.00049979164,"MEAN_MOTION_DOT":0.00037801,"MEAN_MOTION_DDOT":0},{"OBJECT_NAME":"SL-14 R/B","OBJECT_ID":"1986-046B","EPOCH":"2026-03-05T03:50:08.582784","MEAN_MOTION":14.85585122,"ECCENTRICITY":0.00217209,"INCLINATION":82.4782,"RA_OF_ASC_NODE":84.4633,"ARG_OF_PERICENTER":241.1737,"MEAN_ANOMALY":118.7298,"EPHEMERIS_TYPE":0,"CLASSIFICATION_TYPE":"U","NORAD_CAT_ID":16792,"ELEMENT_SET_NO":999,"REV_AT_EPOCH":12573,"BSTAR":6.4488934e-5,"MEAN_MOTION_DOT":5.84e-6,"MEAN_MOTION_DDOT":0},{"OBJECT_NAME":"SL-14 R/B","OBJECT_ID":"1986-055B","EPOCH":"2026-03-05T05:19:04.467936","MEAN_MOTION":14.85638175,"ECCENTRICITY":0.0018571,"INCLINATION":82.521,"RA_OF_ASC_NODE":130.8738,"ARG_OF_PERICENTER":351.7184,"MEAN_ANOMALY":62.4622,"EPHEMERIS_TYPE":0,"CLASSIFICATION_TYPE":"U","NORAD_CAT_ID":16882,"ELEMENT_SET_NO":999,"REV_AT_EPOCH":11870,"BSTAR":7.0245042e-5,"MEAN_MOTION_DOT":6.34e-6,"MEAN_MOTION_DDOT":0},{"OBJECT_NAME":"AJISAI (EGS)","OBJECT_ID":"1986-061A","EPOCH":"2026-03-05T07:14:36.668256","MEAN_MOTION":12.44515601,"ECCENTRICITY":0.0011254,"INCLINATION":50.008,"RA_OF_ASC_NODE":106.841,"ARG_OF_PERICENTER":275.6992,"MEAN_ANOMALY":167.9845,"EPHEMERIS_TYPE":0,"CLASSIFICATION_TYPE":"U","NORAD_CAT_ID":16908,"ELEMENT_SET_NO":999,"REV_AT_EPOCH":46745,"BSTAR":0.00016762894,"MEAN_MOTION_DOT":-7.4e-7,"MEAN_MOTION_DDOT":0},{"OBJECT_NAME":"COSMOS 1812","OBJECT_ID":"1987-003A","EPOCH":"2026-03-05T06:38:26.505888","MEAN_MOTION":16.3493965,"ECCENTRICITY":0.00094546,"INCLINATION":82.4662,"RA_OF_ASC_NODE":200.6099,"ARG_OF_PERICENTER":280.2072,"MEAN_ANOMALY":79.8157,"EPHEMERIS_TYPE":0,"CLASSIFICATION_TYPE":"U","NORAD_CAT_ID":17295,"ELEMENT_SET_NO":999,"REV_AT_EPOCH":14377,"BSTAR":0.00060814253,"MEAN_MOTION_DOT":0.04336969,"MEAN_MOTION_DDOT":-1.247765e-6},{"OBJECT_NAME":"SL-14 R/B","OBJECT_ID":"1987-024B","EPOCH":"2026-03-05T07:54:32.080608","MEAN_MOTION":14.86127386,"ECCENTRICITY":0.00166704,"INCLINATION":82.5251,"RA_OF_ASC_NODE":96.863,"ARG_OF_PERICENTER":275.7137,"MEAN_ANOMALY":84.2178,"EPHEMERIS_TYPE":0,"CLASSIFICATION_TYPE":"U","NORAD_CAT_ID":17567,"ELEMENT_SET_NO":999,"REV_AT_EPOCH":8748,"BSTAR":6.6923535e-5,"MEAN_MOTION_DOT":6.12e-6,"MEAN_MOTION_DDOT":0},{"OBJECT_NAME":"COSMOS 1833","OBJECT_ID":"1987-027A","EPOCH":"2026-03-05T04:30:57.233088","MEAN_MOTION":14.13055825,"ECCENTRICITY":0.00244789,"INCLINATION":70.9232,"RA_OF_ASC_NODE":335.4791,"ARG_OF_PERICENTER":220.7927,"MEAN_ANOMALY":139.1363,"EPHEMERIS_TYPE":0,"CLASSIFICATION_TYPE":"U","NORAD_CAT_ID":17589,"ELEMENT_SET_NO":999,"REV_AT_EPOCH":968,"BSTAR":-4.4564818e-5,"MEAN_MOTION_DOT":-1.32e-6,"MEAN_MOTION_DDOT":0},{"OBJECT_NAME":"SL-16 R/B","OBJECT_ID":"1987-027B","EPOCH":"2026-03-05T00:48:32.397120","MEAN_MOTION":14.17165983,"ECCENTRICITY":0.00036285,"INCLINATION":71.0015,"RA_OF_ASC_NODE":286.3071,"ARG_OF_PERICENTER":152.8419,"MEAN_ANOMALY":207.2895,"EPHEMERIS_TYPE":0,"CLASSIFICATION_TYPE":"U","NORAD_CAT_ID":17590,"ELEMENT_SET_NO":999,"REV_AT_EPOCH":1468,"BSTAR":-5.9456157e-5,"MEAN_MOTION_DOT":-1.68e-6,"MEAN_MOTION_DDOT":0},{"OBJECT_NAME":"SL-14 R/B","OBJECT_ID":"1987-038B","EPOCH":"2026-03-05T06:07:03.589824","MEAN_MOTION":14.85364844,"ECCENTRICITY":0.00193014,"INCLINATION":82.5009,"RA_OF_ASC_NODE":300.9857,"ARG_OF_PERICENTER":174.8609,"MEAN_ANOMALY":185.2809,"EPHEMERIS_TYPE":0,"CLASSIFICATION_TYPE":"U","NORAD_CAT_ID":17912,"ELEMENT_SET_NO":999,"REV_AT_EPOCH":7857,"BSTAR":6.6948282e-5,"MEAN_MOTION_DOT":6.02e-6,"MEAN_MOTION_DDOT":0},{"OBJECT_NAME":"COSMOS 1844","OBJECT_ID":"1987-041A","EPOCH":"2026-03-05T05:28:28.984800","MEAN_MOTION":14.14553139,"ECCENTRICITY":0.00297532,"INCLINATION":70.8996,"RA_OF_ASC_NODE":43.5855,"ARG_OF_PERICENTER":24.5193,"MEAN_ANOMALY":335.7336,"EPHEMERIS_TYPE":0,"CLASSIFICATION_TYPE":"U","NORAD_CAT_ID":17973,"ELEMENT_SET_NO":999,"REV_AT_EPOCH":295,"BSTAR":-2.3204198e-5,"MEAN_MOTION_DOT":-9.3e-7,"MEAN_MOTION_DDOT":0},{"OBJECT_NAME":"SL-14 R/B","OBJECT_ID":"1987-055B","EPOCH":"2026-03-05T05:34:58.630656","MEAN_MOTION":14.85623384,"ECCENTRICITY":0.00215284,"INCLINATION":82.5029,"RA_OF_ASC_NODE":353.2306,"ARG_OF_PERICENTER":32.1148,"MEAN_ANOMALY":328.1375,"EPHEMERIS_TYPE":0,"CLASSIFICATION_TYPE":"U","NORAD_CAT_ID":18153,"ELEMENT_SET_NO":999,"REV_AT_EPOCH":6927,"BSTAR":9.1927659e-5,"MEAN_MOTION_DOT":8.23e-6,"MEAN_MOTION_DDOT":0},{"OBJECT_NAME":"COSMOS 1867","OBJECT_ID":"1987-060A","EPOCH":"2026-03-05T02:38:11.367456","MEAN_MOTION":14.31502252,"ECCENTRICITY":0.00144182,"INCLINATION":65.0117,"RA_OF_ASC_NODE":319.5309,"ARG_OF_PERICENTER":278.3689,"MEAN_ANOMALY":81.5761,"EPHEMERIS_TYPE":0,"CLASSIFICATION_TYPE":"U","NORAD_CAT_ID":18187,"ELEMENT_SET_NO":999,"REV_AT_EPOCH":1928,"BSTAR":4.1240629e-5,"MEAN_MOTION_DOT":1.0e-7,"MEAN_MOTION_DDOT":0},{"OBJECT_NAME":"SL-14 R/B","OBJECT_ID":"1988-001B","EPOCH":"2026-03-05T02:13:45.867072","MEAN_MOTION":14.85520904,"ECCENTRICITY":0.00166483,"INCLINATION":82.5145,"RA_OF_ASC_NODE":199.6826,"ARG_OF_PERICENTER":252.1539,"MEAN_ANOMALY":107.7861,"EPHEMERIS_TYPE":0,"CLASSIFICATION_TYPE":"U","NORAD_CAT_ID":18749,"ELEMENT_SET_NO":999,"REV_AT_EPOCH":4134,"BSTAR":8.5141858e-5,"MEAN_MOTION_DOT":7.6e-6,"MEAN_MOTION_DDOT":0},{"OBJECT_NAME":"COSMOS 1933","OBJECT_ID":"1988-020A","EPOCH":"2026-03-04T23:28:15.473568","MEAN_MOTION":15.17932153,"ECCENTRICITY":0.00034438,"INCLINATION":82.5094,"RA_OF_ASC_NODE":255.5752,"ARG_OF_PERICENTER":200.6253,"MEAN_ANOMALY":159.4842,"EPHEMERIS_TYPE":0,"CLASSIFICATION_TYPE":"U","NORAD_CAT_ID":18958,"ELEMENT_SET_NO":999,"REV_AT_EPOCH":4951,"BSTAR":0.00024217094,"MEAN_MOTION_DOT":4.943e-5,"MEAN_MOTION_DDOT":0},{"OBJECT_NAME":"SL-3 R/B","OBJECT_ID":"1988-032B","EPOCH":"2026-03-05T06:08:08.627424","MEAN_MOTION":15.19845852,"ECCENTRICITY":0.00241664,"INCLINATION":97.5186,"RA_OF_ASC_NODE":47.5222,"ARG_OF_PERICENTER":248.0696,"MEAN_ANOMALY":111.797,"EPHEMERIS_TYPE":0,"CLASSIFICATION_TYPE":"U","NORAD_CAT_ID":19046,"ELEMENT_SET_NO":999,"REV_AT_EPOCH":5143,"BSTAR":0.00031677775,"MEAN_MOTION_DOT":6.775e-5,"MEAN_MOTION_DDOT":0},{"OBJECT_NAME":"SL-16 R/B","OBJECT_ID":"1988-039B","EPOCH":"2026-03-05T07:54:52.134048","MEAN_MOTION":14.19615731,"ECCENTRICITY":0.00224957,"INCLINATION":71.013,"RA_OF_ASC_NODE":77.7674,"ARG_OF_PERICENTER":340.7411,"MEAN_ANOMALY":19.2861,"EPHEMERIS_TYPE":0,"CLASSIFICATION_TYPE":"U","NORAD_CAT_ID":19120,"ELEMENT_SET_NO":999,"REV_AT_EPOCH":95776,"BSTAR":-6.52062e-6,"MEAN_MOTION_DOT":-6.2e-7,"MEAN_MOTION_DDOT":0}]
